{"type": "FeatureCollection", "features": [ {"type": "Feature", "properties": {"norad_id": 42738, "name": "QZS-2 (QZSS/PRN 194)", "group": "gnss", "lat": -25.57522569417456, "lon": 101.08666719052981, "alt_km": 33489.536163381264, "timestamp": "2025-12-09T16:56:36.818125+00:00", "meta": {"OBJECT_NAME": "QZS-2 (QZSS/PRN 194)", "OBJECT_ID": "2017-028A", "EPOCH": "2025-12-09T05:14:08.661120", "MEAN_MOTION": 1.00283977, "ECCENTRICITY": 0.0758111, "INCLINATION": 39.72, "RA_OF_ASC_NODE": 245.9352, "ARG_OF_PERICENTER": 269.4397, "MEAN_ANOMALY": 143.0606, "EPHEMERIS_TYPE": 0, "CLASSIFICATION_TYPE": "U", "NORAD_CAT_ID": 42738, "ELEMENT_SET_NO": 999, "REV_AT_EPOCH": 572, "BSTAR": 0, "MEAN_MOTION_DOT": -1.91e-06, "MEAN_MOTION_DDOT": 0}, "tle": {"line1": "1 42738U 17028A   25343.21815580 -.00000191  00000+0  00000+0 0  9999", "line2": "2 42738  39.7200 245.9352 0758111 269.4397 143.0606  1.00283977  5721"}}, "geometry": {"type": "Point", "coordinates": [101.08666719052981, -25.57522569417456]}}, {"type": "Feature", "properties": {"norad_id": 42917, "name": "QZS-3 (QZSS/PRN 199)", "group": "gnss", "lat": -0.03788117531394686, "lon": 99.88674622450213, "alt_km": 35794.45848508236, "timestamp": "2025-12-09T16:56:36.818142+00:00", "meta": {"OBJECT_NAME": "QZS-3 (QZSS/PRN 199)", "OBJECT_ID": "2017-048A", "EPOCH": "2025-12-09T10:45:08.890848", "MEAN_MOTION": 1.00273373, "ECCENTRICITY": 0.0002149, "INCLINATION": 0.0635, "RA_OF_ASC_NODE": 205.3009, "ARG_OF_PERICENTER": 59.3095, "MEAN_ANOMALY": 102.1641, "EPHEMERIS_TYPE": 0, "CLASSIFICATION_TYPE": "U", "NORAD_CAT_ID": 42917, "ELEMENT_SET_NO": 999, "REV_AT_EPOCH": 3035, "BSTAR": 0, "MEAN_MOTION_DOT": -3.45e-06, "MEAN_MOTION_DDOT": 0}, "tle": {"line1": "1 42917U 17048A   25343.44801957 -.00000345  00000+0  00000+0 0  9999", "line2": "2 42917   0.0635 205.3009 0002149  59.3095 102.1641  1.00273373 30357"}}, "geometry": {"type": "Point", "coordinates": [99.88674622450213, -0.03788117531394686]}}, {"type": "Feature", "properties": {"norad_id": 42939, "name": "COSMOS 2522 (752)", "group": "gnss", "lat": 47.105183763726004, "lon": -13.23505575197857, "alt_km": 19127.27374455577, "timestamp": "2025-12-09T16:56:36.818153+00:00", "meta": {"OBJECT_NAME": "COSMOS 2522 (752)", "OBJECT_ID": "2017-055A", "EPOCH": "2025-12-08T03:13:49.063296", "MEAN_MOTION": 2.13101881, "ECCENTRICITY": 0.00064484, "INCLINATION": 64.0758, "RA_OF_ASC_NODE": 198.386, "ARG_OF_PERICENTER": 225.1717, "MEAN_ANOMALY": 134.8539, "EPHEMERIS_TYPE": 0, "CLASSIFICATION_TYPE": "U", "NORAD_CAT_ID": 42939, "ELEMENT_SET_NO": 999, "REV_AT_EPOCH": 6390, "BSTAR": 0, "MEAN_MOTION_DOT": 5.1e-07, "MEAN_MOTION_DDOT": 0}, "tle": {"line1": "1 42939U 17055A   25342.13459564  .00000051  00000+0  00000+0 0  9992", "line2": "2 42939  64.0758 198.3860 0006448 225.1717 134.8539  2.13101881 63907"}}, "geometry": {"type": "Point", "coordinates": [-13.23505575197857, 47.105183763726004]}}, {"type": "Feature", "properties": {"norad_id": 42965, "name": "QZS-4 (QZSS/PRN 195)", "group": "gnss", "lat": 34.24706256489751, "lon": 112.26083012034593, "alt_km": 38547.97372843517, "timestamp": "2025-12-09T16:56:36.818166+00:00", "meta": {"OBJECT_NAME": "QZS-4 (QZSS/PRN 195)", "OBJECT_ID": "2017-062A", "EPOCH": "2025-12-08T21:03:55.466784", "MEAN_MOTION": 1.00253453, "ECCENTRICITY": 0.0752304, "INCLINATION": 40.2277, "RA_OF_ASC_NODE": 345.9194, "ARG_OF_PERICENTER": 271.4557, "MEAN_ANOMALY": 273.1936, "EPHEMERIS_TYPE": 0, "CLASSIFICATION_TYPE": "U", "NORAD_CAT_ID": 42965, "ELEMENT_SET_NO": 999, "REV_AT_EPOCH": 2989, "BSTAR": 0, "MEAN_MOTION_DOT": -3.54e-06, "MEAN_MOTION_DDOT": 0}, "tle": {"line1": "1 42965U 17062A   25342.87772531 -.00000354  00000+0  00000+0 0  9999", "line2": "2 42965  40.2277 345.9194 0752304 271.4557 273.1936  1.00253453 29899"}}, "geometry": {"type": "Point", "coordinates": [112.26083012034593, 34.24706256489751]}}, {"type": "Feature", "properties": {"norad_id": 43001, "name": "BEIDOU-3 M1 (C19)", "group": "gnss", "lat": 55.038203350364014, "lon": 140.25405369047513, "alt_km": 21539.588525937164, "timestamp": "2025-12-09T16:56:36.818177+00:00", "meta": {"OBJECT_NAME": "BEIDOU-3 M1 (C19)", "OBJECT_ID": "2017-069A", "EPOCH": "2025-12-07T23:26:52.374048", "MEAN_MOTION": 1.86230858, "ECCENTRICITY": 0.0009017, "INCLINATION": 56.5233, "RA_OF_ASC_NODE": 69.3913, "ARG_OF_PERICENTER": 303.8137, "MEAN_ANOMALY": 56.1206, "EPHEMERIS_TYPE": 0, "CLASSIFICATION_TYPE": "U", "NORAD_CAT_ID": 43001, "ELEMENT_SET_NO": 999, "REV_AT_EPOCH": 5504, "BSTAR": 0, "MEAN_MOTION_DOT": -4.4e-07, "MEAN_MOTION_DDOT": 0}, "tle": {"line1": "1 43001U 17069A   25341.97699507 -.00000044  00000+0  00000+0 0  9995", "line2": "2 43001  56.5233  69.3913 0009017 303.8137  56.1206  1.86230858 55042"}}, "geometry": {"type": "Point", "coordinates": [140.25405369047513, 55.038203350364014]}}, {"type": "Feature", "properties": {"norad_id": 43002, "name": "BEIDOU-3 M2 (C20)", "group": "gnss", "lat": 45.923886386707174, "lon": -153.65548767471225, "alt_km": 21537.295938322506, "timestamp": "2025-12-09T16:56:36.818191+00:00", "meta": {"OBJECT_NAME": "BEIDOU-3 M2 (C20)", "OBJECT_ID": "2017-069B", "EPOCH": "2025-12-08T23:44:32.826912", "MEAN_MOTION": 1.86230548, "ECCENTRICITY": 0.00062161, "INCLINATION": 56.5232, "RA_OF_ASC_NODE": 69.3945, "ARG_OF_PERICENTER": 332.7308, "MEAN_ANOMALY": 27.2585, "EPHEMERIS_TYPE": 0, "CLASSIFICATION_TYPE": "U", "NORAD_CAT_ID": 43002, "ELEMENT_SET_NO": 999, "REV_AT_EPOCH": 5505, "BSTAR": 0, "MEAN_MOTION_DOT": -4.6e-07, "MEAN_MOTION_DDOT": 0}, "tle": {"line1": "1 43002U 17069B   25342.98926883 -.00000046  00000+0  00000+0 0  9990", "line2": "2 43002  56.5232  69.3945 0006216 332.7308  27.2585  1.86230548 55052"}}, "geometry": {"type": "Point", "coordinates": [-153.65548767471225, 45.923886386707174]}}, {"type": "Feature", "properties": {"norad_id": 43055, "name": "GSAT0215 (GALILEO 19)", "group": "gnss", "lat": 54.70417626243901, "lon": -33.026892973074816, "alt_km": 23217.389407510254, "timestamp": "2025-12-09T16:56:36.818205+00:00", "meta": {"OBJECT_NAME": "GSAT0215 (GALILEO 19)", "OBJECT_ID": "2017-079A", "EPOCH": "2025-12-07T04:52:59.598912", "MEAN_MOTION": 1.70473814, "ECCENTRICITY": 0.000129, "INCLINATION": 55.132, "RA_OF_ASC_NODE": 226.7904, "ARG_OF_PERICENTER": 342.2986, "MEAN_ANOMALY": 17.7924, "EPHEMERIS_TYPE": 0, "CLASSIFICATION_TYPE": "U", "NORAD_CAT_ID": 43055, "ELEMENT_SET_NO": 999, "REV_AT_EPOCH": 4971, "BSTAR": 0, "MEAN_MOTION_DOT": 2.6e-07, "MEAN_MOTION_DDOT": 0}, "tle": {"line1": "1 43055U 17079A   25341.20346758  .00000026  00000+0  00000+0 0  9997", "line2": "2 43055  55.1320 226.7904 0001290 342.2986  17.7924  1.70473814 49717"}}, "geometry": {"type": "Point", "coordinates": [-33.026892973074816, 54.70417626243901]}}, {"type": "Feature", "properties": {"norad_id": 43056, "name": "GSAT0216 (GALILEO 20)", "group": "gnss", "lat": -54.51540085780251, "lon": 148.98606884611843, "alt_km": 23222.485032229935, "timestamp": "2025-12-09T16:56:36.818217+00:00", "meta": {"OBJECT_NAME": "GSAT0216 (GALILEO 20)", "OBJECT_ID": "2017-079B", "EPOCH": "2025-12-08T01:57:06.766848", "MEAN_MOTION": 1.70473892, "ECCENTRICITY": 0.00025149, "INCLINATION": 55.132, "RA_OF_ASC_NODE": 226.7661, "ARG_OF_PERICENTER": 318.3772, "MEAN_ANOMALY": 41.6956, "EPHEMERIS_TYPE": 0, "CLASSIFICATION_TYPE": "U", "NORAD_CAT_ID": 43056, "ELEMENT_SET_NO": 999, "REV_AT_EPOCH": 4974, "BSTAR": 0, "MEAN_MOTION_DOT": 1.9e-07, "MEAN_MOTION_DDOT": 0}, "tle": {"line1": "1 43056U 17079B   25342.08132832  .00000019  00000+0  00000+0 0  9993", "line2": "2 43056  55.1320 226.7661 0002514 318.3772  41.6956  1.70473892 49745"}}, "geometry": {"type": "Point", "coordinates": [148.98606884611843, -54.51540085780251]}}, {"type": "Feature", "properties": {"norad_id": 43057, "name": "GSAT0217 (GALILEO 21)", "group": "gnss", "lat": 30.57715311366725, "lon": 22.420111092119697, "alt_km": 23226.200950102688, "timestamp": "2025-12-09T16:56:36.818228+00:00", "meta": {"OBJECT_NAME": "GSAT0217 (GALILEO 21)", "OBJECT_ID": "2017-079C", "EPOCH": "2025-12-08T07:14:55.853376", "MEAN_MOTION": 1.70473894, "ECCENTRICITY": 0.0002795, "INCLINATION": 55.1299, "RA_OF_ASC_NODE": 226.758, "ARG_OF_PERICENTER": 342.2851, "MEAN_ANOMALY": 17.7961, "EPHEMERIS_TYPE": 0, "CLASSIFICATION_TYPE": "U", "NORAD_CAT_ID": 43057, "ELEMENT_SET_NO": 999, "REV_AT_EPOCH": 4973, "BSTAR": 0, "MEAN_MOTION_DOT": 1.7e-07, "MEAN_MOTION_DDOT": 0}, "tle": {"line1": "1 43057U 17079C   25342.30203534  .00000017  00000+0  00000+0 0  9995", "line2": "2 43057  55.1299 226.7580 0002795 342.2851  17.7961  1.70473894 49737"}}, "geometry": {"type": "Point", "coordinates": [22.420111092119697, 30.57715311366725]}}, {"type": "Feature", "properties": {"norad_id": 43058, "name": "GSAT0218 (GALILEO 22)", "group": "gnss", "lat": 5.407032030438408, "lon": -129.4927222746257, "alt_km": 23217.608613151282, "timestamp": "2025-12-09T16:56:36.818240+00:00", "meta": {"OBJECT_NAME": "GSAT0218 (GALILEO 22)", "OBJECT_ID": "2017-079D", "EPOCH": "2025-12-09T02:36:28.325088", "MEAN_MOTION": 1.70473942, "ECCENTRICITY": 0.0002812, "INCLINATION": 55.1298, "RA_OF_ASC_NODE": 226.7335, "ARG_OF_PERICENTER": 306.3632, "MEAN_ANOMALY": 53.6978, "EPHEMERIS_TYPE": 0, "CLASSIFICATION_TYPE": "U", "NORAD_CAT_ID": 43058, "ELEMENT_SET_NO": 999, "REV_AT_EPOCH": 4977, "BSTAR": 0, "MEAN_MOTION_DOT": 1.2e-07, "MEAN_MOTION_DDOT": 0}, "tle": {"line1": "1 43058U 17079D   25343.10866117  .00000012  00000+0  00000+0 0  9992", "line2": "2 43058  55.1298 226.7335 0002812 306.3632  53.6978  1.70473942 49778"}}, "geometry": {"type": "Point", "coordinates": [-129.4927222746257, 5.407032030438408]}}]}